SL-16 R/B               
1 22285U 92093B   25312.25652989  .00000315  00000+0  18572-3 0  9995
2 22285  71.0205 259.1797 0003110 162.8809 197.2419 14.15420188695978
COSMOS 2228             
1 22286U 92094A   25312.45836715  .00003587  00000+0  31272-3 0  9996
2 22286  82.5191 353.3322 0017844 355.3482   4.7571 14.96493835757929
SL-16 R/B               
1 22566U 93016B   25312.49688970 -.00000005  00000+0  22064-4 0  9997
2 22566  71.0047 109.7197 0009326 159.5090 200.6409 14.15278355685028
COSMOS 2242             
1 22626U 93024A   25312.45675931  .00003119  00000+0  27598-3 0  9996
2 22626  82.5219  22.6037 0016256 358.3383   1.7782 14.95892551762267
SL-16 R/B               
1 22803U 93059B   25312.28799325  .00000117  00000+0  81760-4 0  9993
2 22803  70.9892 267.1330 0015884  28.2770 331.9213 14.17202497662335
ARIANE 40 R/B           
1 22830U 93061H   25312.18998596  .00000389  00000+0  15884-3 0  9990
2 22830  98.5119  18.3420 0009611 285.0658  74.9462 14.32767657676705
COSMOS 2278             
1 23087U 94023A   25312.44631065  .00000278  00000+0  17021-3 0  9990
2 23087  71.0529  68.7537 0010219 223.3435 136.6885 14.14333609627665
SL-16 R/B               
1 23088U 94023B   25312.47754199 -.00000123  00000+0 -38857-4 0  9990
2 23088  71.0003 325.4403 0001609 172.3725 187.7422 14.14993043628946
SL-16 R/B               
1 23343U 94074B   25312.53517571  .00000792  00000+0  11328-3 0  9991
2 23343  97.7248 343.1921 0005173 252.2022 274.7489 14.79228672669334
SL-16 R/B               
1 23405U 94077B   25312.22377443  .00000331  00000+0  19379-3 0  9994
2 23405  70.9821 248.0233 0003686 312.1812  47.8997 14.15541026599046
ARIANE 40+ R/B          
1 23561U 95021B   25312.46332652  .00000538  00000+0  18591-3 0  9990
2 23561  98.4690  20.4599 0007551 138.9507 232.2750 14.39653705601804
SL-16 R/B               
1 23705U 95058B   25312.43673412  .00000108  00000+0  79810-4 0  9994
2 23705  71.0217  74.8195 0014628 299.7213  60.2454 14.15475741550690
