CCSDS_OMM_VERS = 2.0
CREATION_DATE  = 
ORIGINATOR     = 

OBJECT_NAME    = SL-16 R/B
OBJECT_ID      = 1992-093B
CENTER_NAME    = EARTH
REF_FRAME      = TEME
TIME_SYSTEM    = UTC
MEAN_ELEMENT_THEORY = SGP/SGP4

EPOCH          = 2025-11-08T06:09:24.182496
MEAN_MOTION    = 14.15420188
ECCENTRICITY   = .000311
INCLINATION    = 71.0205
RA_OF_ASC_NODE = 259.1797
ARG_OF_PERICENTER = 162.8809
MEAN_ANOMALY   = 197.2419

EPHEMERIS_TYPE = 0
CLASSIFICATION_TYPE = U
NORAD_CAT_ID   = 22285
ELEMENT_SET_NO = 999
REV_AT_EPOCH   = 69597
BSTAR          = .18571938E-3
MEAN_MOTION_DOT = .315E-5
MEAN_MOTION_DDOT = 0

CCSDS_OMM_VERS = 2.0
CREATION_DATE  = 
ORIGINATOR     = 

OBJECT_NAME    = COSMOS 2228
OBJECT_ID      = 1992-094A
CENTER_NAME    = EARTH
REF_FRAME      = TEME
TIME_SYSTEM    = UTC
MEAN_ELEMENT_THEORY = SGP/SGP4

EPOCH          = 2025-11-08T11:00:02.921760
MEAN_MOTION    = 14.96493835
ECCENTRICITY   = .0017844
INCLINATION    = 82.5191
RA_OF_ASC_NODE = 353.3322
ARG_OF_PERICENTER = 355.3482
MEAN_ANOMALY   = 4.7571

EPHEMERIS_TYPE = 0
CLASSIFICATION_TYPE = U
NORAD_CAT_ID   = 22286
ELEMENT_SET_NO = 999
REV_AT_EPOCH   = 75792
BSTAR          = .31272E-3
MEAN_MOTION_DOT = .3587E-4
MEAN_MOTION_DDOT = 0

CCSDS_OMM_VERS = 2.0
CREATION_DATE  = 
ORIGINATOR     = 

OBJECT_NAME    = SL-16 R/B
OBJECT_ID      = 1993-016B
CENTER_NAME    = EARTH
REF_FRAME      = TEME
TIME_SYSTEM    = UTC
MEAN_ELEMENT_THEORY = SGP/SGP4

EPOCH          = 2025-11-08T11:55:31.270080
MEAN_MOTION    = 14.15278355
ECCENTRICITY   = .0009326
INCLINATION    = 71.0047
RA_OF_ASC_NODE = 109.7197
ARG_OF_PERICENTER = 159.5090
MEAN_ANOMALY   = 200.6409

EPHEMERIS_TYPE = 0
CLASSIFICATION_TYPE = U
NORAD_CAT_ID   = 22566
ELEMENT_SET_NO = 999
REV_AT_EPOCH   = 68502
BSTAR          = .22064E-4
MEAN_MOTION_DOT = -.5E-7
MEAN_MOTION_DDOT = 0

CCSDS_OMM_VERS = 2.0
CREATION_DATE  = 
ORIGINATOR     = 

OBJECT_NAME    = COSMOS 2242
OBJECT_ID      = 1993-024A
CENTER_NAME    = EARTH
REF_FRAME      = TEME
TIME_SYSTEM    = UTC
MEAN_ELEMENT_THEORY = SGP/SGP4

EPOCH          = 2025-11-08T10:57:44.004384
MEAN_MOTION    = 14.95892551
ECCENTRICITY   = .0016256
INCLINATION    = 82.5219
RA_OF_ASC_NODE = 22.6037
ARG_OF_PERICENTER = 358.3383
MEAN_ANOMALY   = 1.7782

EPHEMERIS_TYPE = 0
CLASSIFICATION_TYPE = U
NORAD_CAT_ID   = 22626
ELEMENT_SET_NO = 999
REV_AT_EPOCH   = 76226
BSTAR          = .27598E-3
MEAN_MOTION_DOT = .3119E-4
MEAN_MOTION_DDOT = 0

CCSDS_OMM_VERS = 2.0
CREATION_DATE  = 
ORIGINATOR     = 

OBJECT_NAME    = SL-16 R/B
OBJECT_ID      = 1993-059B
CENTER_NAME    = EARTH
REF_FRAME      = TEME
TIME_SYSTEM    = UTC
MEAN_ELEMENT_THEORY = SGP/SGP4

EPOCH          = 2025-11-08T06:54:42.616800
MEAN_MOTION    = 14.17202497
ECCENTRICITY   = .00158848
INCLINATION    = 70.9892
RA_OF_ASC_NODE = 267.1330
ARG_OF_PERICENTER = 28.2770
MEAN_ANOMALY   = 331.9213

EPHEMERIS_TYPE = 0
CLASSIFICATION_TYPE = U
NORAD_CAT_ID   = 22803
ELEMENT_SET_NO = 999
REV_AT_EPOCH   = 66233
BSTAR          = .8175958E-4
MEAN_MOTION_DOT = .117E-5
MEAN_MOTION_DDOT = 0

CCSDS_OMM_VERS = 2.0
CREATION_DATE  = 
ORIGINATOR     = 

OBJECT_NAME    = ARIANE 40 R/B
OBJECT_ID      = 1993-061H
CENTER_NAME    = EARTH
REF_FRAME      = TEME
TIME_SYSTEM    = UTC
MEAN_ELEMENT_THEORY = SGP/SGP4

EPOCH          = 2025-11-08T04:33:34.786944
MEAN_MOTION    = 14.32767657
ECCENTRICITY   = .00096111
INCLINATION    = 98.5119
RA_OF_ASC_NODE = 18.3420
ARG_OF_PERICENTER = 285.0658
MEAN_ANOMALY   = 74.9462

EPHEMERIS_TYPE = 0
CLASSIFICATION_TYPE = U
NORAD_CAT_ID   = 22830
ELEMENT_SET_NO = 999
REV_AT_EPOCH   = 67670
BSTAR          = .15883649E-3
MEAN_MOTION_DOT = .389E-5
MEAN_MOTION_DDOT = 0

CCSDS_OMM_VERS = 2.0
CREATION_DATE  = 
ORIGINATOR     = 

OBJECT_NAME    = COSMOS 2278
OBJECT_ID      = 1994-023A
CENTER_NAME    = EARTH
REF_FRAME      = TEME
TIME_SYSTEM    = UTC
MEAN_ELEMENT_THEORY = SGP/SGP4

EPOCH          = 2025-11-08T10:42:41.240160
MEAN_MOTION    = 14.14333609
ECCENTRICITY   = .0010219
INCLINATION    = 71.0529
RA_OF_ASC_NODE = 68.7537
ARG_OF_PERICENTER = 223.3435
MEAN_ANOMALY   = 136.6885

EPHEMERIS_TYPE = 0
CLASSIFICATION_TYPE = U
NORAD_CAT_ID   = 23087
ELEMENT_SET_NO = 999
REV_AT_EPOCH   = 62766
BSTAR          = .17021E-3
MEAN_MOTION_DOT = .278E-5
MEAN_MOTION_DDOT = 0

CCSDS_OMM_VERS = 2.0
CREATION_DATE  = 
ORIGINATOR     = 

OBJECT_NAME    = SL-16 R/B
OBJECT_ID      = 1994-023B
CENTER_NAME    = EARTH
REF_FRAME      = TEME
TIME_SYSTEM    = UTC
MEAN_ELEMENT_THEORY = SGP/SGP4

EPOCH          = 2025-11-08T11:27:39.627936
MEAN_MOTION    = 14.14993043
ECCENTRICITY   = .0001609
INCLINATION    = 71.0003
RA_OF_ASC_NODE = 325.4403
ARG_OF_PERICENTER = 172.3725
MEAN_ANOMALY   = 187.7422

EPHEMERIS_TYPE = 0
CLASSIFICATION_TYPE = U
NORAD_CAT_ID   = 23088
ELEMENT_SET_NO = 999
REV_AT_EPOCH   = 62894
BSTAR          = -.38857E-4
MEAN_MOTION_DOT = -.123E-5
MEAN_MOTION_DDOT = 0

CCSDS_OMM_VERS = 2.0
CREATION_DATE  = 
ORIGINATOR     = 

OBJECT_NAME    = SL-16 R/B
OBJECT_ID      = 1994-074B
CENTER_NAME    = EARTH
REF_FRAME      = TEME
TIME_SYSTEM    = UTC
MEAN_ELEMENT_THEORY = SGP/SGP4

EPOCH          = 2025-11-08T12:50:39.181344
MEAN_MOTION    = 14.79228672
ECCENTRICITY   = .0005173
INCLINATION    = 97.7248
RA_OF_ASC_NODE = 343.1921
ARG_OF_PERICENTER = 252.2022
MEAN_ANOMALY   = 274.7489

EPHEMERIS_TYPE = 0
CLASSIFICATION_TYPE = U
NORAD_CAT_ID   = 23343
ELEMENT_SET_NO = 999
REV_AT_EPOCH   = 66933
BSTAR          = .11328E-3
MEAN_MOTION_DOT = .792E-5
MEAN_MOTION_DDOT = 0

CCSDS_OMM_VERS = 2.0
CREATION_DATE  = 
ORIGINATOR     = 

OBJECT_NAME    = SL-16 R/B
OBJECT_ID      = 1994-077B
CENTER_NAME    = EARTH
REF_FRAME      = TEME
TIME_SYSTEM    = UTC
MEAN_ELEMENT_THEORY = SGP/SGP4

EPOCH          = 2025-11-08T05:22:14.110752
MEAN_MOTION    = 14.15541026
ECCENTRICITY   = .00036868
INCLINATION    = 70.9821
RA_OF_ASC_NODE = 248.0233
ARG_OF_PERICENTER = 312.1812
MEAN_ANOMALY   = 47.8997

EPHEMERIS_TYPE = 0
CLASSIFICATION_TYPE = U
NORAD_CAT_ID   = 23405
ELEMENT_SET_NO = 999
REV_AT_EPOCH   = 59904
BSTAR          = .19379055E-3
MEAN_MOTION_DOT = .331E-5
MEAN_MOTION_DDOT = 0

CCSDS_OMM_VERS = 2.0
CREATION_DATE  = 
ORIGINATOR     = 

OBJECT_NAME    = ARIANE 40+ R/B
OBJECT_ID      = 1995-021B
CENTER_NAME    = EARTH
REF_FRAME      = TEME
TIME_SYSTEM    = UTC
MEAN_ELEMENT_THEORY = SGP/SGP4

EPOCH          = 2025-11-08T11:07:11.411328
MEAN_MOTION    = 14.39653705
ECCENTRICITY   = .0007551
INCLINATION    = 98.4690
RA_OF_ASC_NODE = 20.4599
ARG_OF_PERICENTER = 138.9507
MEAN_ANOMALY   = 232.2750

EPHEMERIS_TYPE = 0
CLASSIFICATION_TYPE = U
NORAD_CAT_ID   = 23561
ELEMENT_SET_NO = 999
REV_AT_EPOCH   = 60180
BSTAR          = .18591E-3
MEAN_MOTION_DOT = .538E-5
MEAN_MOTION_DDOT = 0

CCSDS_OMM_VERS = 2.0
CREATION_DATE  = 
ORIGINATOR     = 

OBJECT_NAME    = SL-16 R/B
OBJECT_ID      = 1995-058B
CENTER_NAME    = EARTH
REF_FRAME      = TEME
TIME_SYSTEM    = UTC
MEAN_ELEMENT_THEORY = SGP/SGP4

EPOCH          = 2025-11-08T10:28:53.827968
MEAN_MOTION    = 14.15475741
ECCENTRICITY   = .0014628
INCLINATION    = 71.0217
RA_OF_ASC_NODE = 74.8195
ARG_OF_PERICENTER = 299.7213
MEAN_ANOMALY   = 60.2454

EPHEMERIS_TYPE = 0
CLASSIFICATION_TYPE = U
NORAD_CAT_ID   = 23705
ELEMENT_SET_NO = 999
REV_AT_EPOCH   = 55069
BSTAR          = .7981E-4
MEAN_MOTION_DOT = .108E-5
MEAN_MOTION_DDOT = 0

